{{Infobox Planet  
| name =  337 Devosa
| image = 
| caption = 
| discovery=yes | physical_characteristics = yes | bgcolour=#FFFFC0
| discovery_ref = 
| discoverer = [[奥古斯特·沙卢瓦|奥古斯特·沙卢瓦]]
| discovery_site = [[尼斯|尼斯]]
| discovered =  1892年9月22日
| mp_name = 337
| alt_names = 1892 E
| named_after = 
| mp_category=[[小行星带|主带小行星]]
| orbit_ref = <ref>[http://ssd.jpl.nasa.gov/sbdb.cgi?sstr=337 337 Devosa]</ref>
| epoch = 2011年8月27日
| semimajor= 2.383390198778403AU
| perihelion=2.05790008385219AU
| aphelion=2.708880313704616[[天文单位|AU]]
| eccentricity =0.1365660205756664
| period =1343.974876880769[[日|地球日]]<br>3.68[[年|地球年]] 
| inclination=7.852903433330245[[角度|°]]
| asc_node=355.51735866°	
| arg_peri=98.58410536756493°
| mean_anomaly=47.58565293136675°
| avg_speed=19.3 km/s
 | dimensions=59.11千米
 | mass=
 | density=
 | surface_grav=
 | escape_velocity=
 | rotation=4.65[[小时|小时]]
 | spectral_type=[[X-型小行星|X]]
 | magnitude=
 | abs_magnitude=8.74
 | albedo=0.1614
 | single_temperature=
}}
'''小行星337'''（'''337 Devosa'''），是由[[法国|法国]][[天文学家|天文学家]][[奥古斯特·沙卢瓦|奥古斯特·沙卢瓦]]于1892年9月22日在法国[[尼斯|尼斯]]发现的[[小行星带|主带]][[小行星|小行星]]。

小行星337的命名依据不明。

== 参考资料 ==
{{Reflist}}

{{Minor Planet Number|(336)[[小行星336|小行星336]]|(338)[[小行星338|小行星338]]}}

[[Category:小行星带天体|Category:小行星带天体]]
[[Category:1892年发现的小行星|Category:1892年发现的小行星]]
[[Category:X-型小行星|Category:X-型小行星]]